IDEFIX & ARIANE 42P R/B 
1 27422U 02021B   26030.24928341  .00000448  00000+0  18685-3 0  9992
2 27422  98.5834 329.3246 0010940 304.6288  55.3863 14.30996456238527
AQUA                    
1 27424U 02022A   26030.30220390  .00001650  00000+0  33978-3 0  9999
2 27424  98.4105 356.9891 0001785  61.0870  75.4289 14.61876340263121
CZ-4B R/B               
1 27432U 02024C   26030.17085341  .00000071  00000+0  59011-4 0  9993
2 27432  98.8922  83.7561 0050925 131.7800 297.9050 14.14540194223797
MIDORI II (ADEOS-II)    
1 27597U 02056A   26030.16066669  .00000512  00000+0  21906-3 0  9992
2 27597  98.7704 348.3895 0002051  97.1048 263.0367 14.29253606204791
H-2A R/B                
1 27601U 02056E   26029.90585941  .00000543  00000+0  20536-3 0  9999
2 27601  98.3132 351.7650 0069076 277.4198 146.0098 14.33730495208554
CZ-4B R/B               
1 28059U 03049C   26029.94190351  .00000786  00000+0  19182-3 0  9995
2 28059  98.6834  23.3404 0048062 351.3692   8.6672 14.54973780180960
CZ-2C R/B               
1 28222U 04012C   26030.17757234  .00060957  00000+0  74195-3 0  9995
2 28222  97.7336  91.9391 0016699  93.0439 267.2728 15.60172649198265
SL-16 R/B               
1 28353U 04021B   26030.20144059 -.00000200  00000+0 -79208-4 0  9997
2 28353  71.0018 313.2656 0002645 106.7371 253.4042 14.14590254117394
CZ-4B R/B               
1 28415U 04035C   26030.02758221  .00011866  00000+0  42501-3 0  9996
2 28415  97.3562  64.7446 0034330 105.2308 255.2732 15.28334237174003
CZ-2C R/B               
1 28480U 04046B   26030.20060193  .00000274  00000+0  11787-3 0  9997
2 28480  98.1999 307.5738 0138209 268.7486  89.7860 14.26977057103017
ARIANE 5 R/B            
1 28499U 04049H   26030.02945305  .00001670  00000+0  18956-3 0  9993
2 28499  98.2559 197.0570 0085392 116.0564 244.9472 14.85178619140053
CZ-2D R/B               
1 28738U 05024B   26030.31149409  .00048277  00000+0  67162-3 0  9993
2 28738  97.3615  44.1507 0006548 140.2014 219.9723 15.56809337133802
