CCSDS_OMM_VERS = 2.0
CREATION_DATE  = 
ORIGINATOR     = 

OBJECT_NAME    = IDEFIX & ARIANE 42P R/B
OBJECT_ID      = 2002-021B
CENTER_NAME    = EARTH
REF_FRAME      = TEME
TIME_SYSTEM    = UTC
MEAN_ELEMENT_THEORY = SGP/SGP4

EPOCH          = 2026-01-30T05:58:58.086624
MEAN_MOTION    = 14.30996456
ECCENTRICITY   = .00109407
INCLINATION    = 98.5834
RA_OF_ASC_NODE = 329.3246
ARG_OF_PERICENTER = 304.6288
MEAN_ANOMALY   = 55.3863

EPHEMERIS_TYPE = 0
CLASSIFICATION_TYPE = U
NORAD_CAT_ID   = 27422
ELEMENT_SET_NO = 999
REV_AT_EPOCH   = 23852
BSTAR          = .1868471E-3
MEAN_MOTION_DOT = .448E-5
MEAN_MOTION_DDOT = 0

CCSDS_OMM_VERS = 2.0
CREATION_DATE  = 
ORIGINATOR     = 

OBJECT_NAME    = AQUA
OBJECT_ID      = 2002-022A
CENTER_NAME    = EARTH
REF_FRAME      = TEME
TIME_SYSTEM    = UTC
MEAN_ELEMENT_THEORY = SGP/SGP4

EPOCH          = 2026-01-30T07:15:10.416960
MEAN_MOTION    = 14.61876340
ECCENTRICITY   = .00017856
INCLINATION    = 98.4105
RA_OF_ASC_NODE = 356.9891
ARG_OF_PERICENTER = 61.0870
MEAN_ANOMALY   = 75.4289

EPHEMERIS_TYPE = 0
CLASSIFICATION_TYPE = U
NORAD_CAT_ID   = 27424
ELEMENT_SET_NO = 999
REV_AT_EPOCH   = 26312
BSTAR          = .33978286E-3
MEAN_MOTION_DOT = .165E-4
MEAN_MOTION_DDOT = 0

CCSDS_OMM_VERS = 2.0
CREATION_DATE  = 
ORIGINATOR     = 

OBJECT_NAME    = CZ-4B R/B
OBJECT_ID      = 2002-024C
CENTER_NAME    = EARTH
REF_FRAME      = TEME
TIME_SYSTEM    = UTC
MEAN_ELEMENT_THEORY = SGP/SGP4

EPOCH          = 2026-01-30T04:06:01.734624
MEAN_MOTION    = 14.14540194
ECCENTRICITY   = .00509255
INCLINATION    = 98.8922
RA_OF_ASC_NODE = 83.7561
ARG_OF_PERICENTER = 131.7800
MEAN_ANOMALY   = 297.9050

EPHEMERIS_TYPE = 0
CLASSIFICATION_TYPE = U
NORAD_CAT_ID   = 27432
ELEMENT_SET_NO = 999
REV_AT_EPOCH   = 22379
BSTAR          = .5901091E-4
MEAN_MOTION_DOT = .71E-6
MEAN_MOTION_DDOT = 0

CCSDS_OMM_VERS = 2.0
CREATION_DATE  = 
ORIGINATOR     = 

OBJECT_NAME    = MIDORI II (ADEOS-II)
OBJECT_ID      = 2002-056A
CENTER_NAME    = EARTH
REF_FRAME      = TEME
TIME_SYSTEM    = UTC
MEAN_ELEMENT_THEORY = SGP/SGP4

EPOCH          = 2026-01-30T03:51:21.602016
MEAN_MOTION    = 14.29253606
ECCENTRICITY   = .00020511
INCLINATION    = 98.7704
RA_OF_ASC_NODE = 348.3895
ARG_OF_PERICENTER = 97.1048
MEAN_ANOMALY   = 263.0367

EPHEMERIS_TYPE = 0
CLASSIFICATION_TYPE = U
NORAD_CAT_ID   = 27597
ELEMENT_SET_NO = 999
REV_AT_EPOCH   = 20479
BSTAR          = .21906222E-3
MEAN_MOTION_DOT = .512E-5
MEAN_MOTION_DDOT = 0

CCSDS_OMM_VERS = 2.0
CREATION_DATE  = 
ORIGINATOR     = 

OBJECT_NAME    = H-2A R/B
OBJECT_ID      = 2002-056E
CENTER_NAME    = EARTH
REF_FRAME      = TEME
TIME_SYSTEM    = UTC
MEAN_ELEMENT_THEORY = SGP/SGP4

EPOCH          = 2026-01-29T21:44:26.253024
MEAN_MOTION    = 14.33730495
ECCENTRICITY   = .00690763
INCLINATION    = 98.3132
RA_OF_ASC_NODE = 351.7650
ARG_OF_PERICENTER = 277.4198
MEAN_ANOMALY   = 146.0098

EPHEMERIS_TYPE = 0
CLASSIFICATION_TYPE = U
NORAD_CAT_ID   = 27601
ELEMENT_SET_NO = 999
REV_AT_EPOCH   = 20855
BSTAR          = .20536047E-3
MEAN_MOTION_DOT = .543E-5
MEAN_MOTION_DDOT = 0

CCSDS_OMM_VERS = 2.0
CREATION_DATE  = 
ORIGINATOR     = 

OBJECT_NAME    = CZ-4B R/B
OBJECT_ID      = 2003-049C
CENTER_NAME    = EARTH
REF_FRAME      = TEME
TIME_SYSTEM    = UTC
MEAN_ELEMENT_THEORY = SGP/SGP4

EPOCH          = 2026-01-29T22:36:20.463264
MEAN_MOTION    = 14.54973780
ECCENTRICITY   = .00480623
INCLINATION    = 98.6834
RA_OF_ASC_NODE = 23.3404
ARG_OF_PERICENTER = 351.3692
MEAN_ANOMALY   = 8.6672

EPHEMERIS_TYPE = 0
CLASSIFICATION_TYPE = U
NORAD_CAT_ID   = 28059
ELEMENT_SET_NO = 999
REV_AT_EPOCH   = 18096
BSTAR          = .19182286E-3
MEAN_MOTION_DOT = .786E-5
MEAN_MOTION_DDOT = 0

CCSDS_OMM_VERS = 2.0
CREATION_DATE  = 
ORIGINATOR     = 

OBJECT_NAME    = CZ-2C R/B
OBJECT_ID      = 2004-012C
CENTER_NAME    = EARTH
REF_FRAME      = TEME
TIME_SYSTEM    = UTC
MEAN_ELEMENT_THEORY = SGP/SGP4

EPOCH          = 2026-01-30T04:15:42.250176
MEAN_MOTION    = 15.60172649
ECCENTRICITY   = .00166997
INCLINATION    = 97.7336
RA_OF_ASC_NODE = 91.9391
ARG_OF_PERICENTER = 93.0439
MEAN_ANOMALY   = 267.2728

EPHEMERIS_TYPE = 0
CLASSIFICATION_TYPE = U
NORAD_CAT_ID   = 28222
ELEMENT_SET_NO = 999
REV_AT_EPOCH   = 19826
BSTAR          = .74195272E-3
MEAN_MOTION_DOT = .60957E-3
MEAN_MOTION_DDOT = 0

CCSDS_OMM_VERS = 2.0
CREATION_DATE  = 
ORIGINATOR     = 

OBJECT_NAME    = SL-16 R/B
OBJECT_ID      = 2004-021B
CENTER_NAME    = EARTH
REF_FRAME      = TEME
TIME_SYSTEM    = UTC
MEAN_ELEMENT_THEORY = SGP/SGP4

EPOCH          = 2026-01-30T04:50:04.466976
MEAN_MOTION    = 14.14590254
ECCENTRICITY   = .00026458
INCLINATION    = 71.0018
RA_OF_ASC_NODE = 313.2656
ARG_OF_PERICENTER = 106.7371
MEAN_ANOMALY   = 253.4042

EPHEMERIS_TYPE = 0
CLASSIFICATION_TYPE = U
NORAD_CAT_ID   = 28353
ELEMENT_SET_NO = 999
REV_AT_EPOCH   = 11739
BSTAR          = -.79207581E-4
MEAN_MOTION_DOT = -.2E-5
MEAN_MOTION_DDOT = 0

CCSDS_OMM_VERS = 2.0
CREATION_DATE  = 
ORIGINATOR     = 

OBJECT_NAME    = CZ-4B R/B
OBJECT_ID      = 2004-035C
CENTER_NAME    = EARTH
REF_FRAME      = TEME
TIME_SYSTEM    = UTC
MEAN_ELEMENT_THEORY = SGP/SGP4

EPOCH          = 2026-01-30T00:39:43.102944
MEAN_MOTION    = 15.28334237
ECCENTRICITY   = .00343302
INCLINATION    = 97.3562
RA_OF_ASC_NODE = 64.7446
ARG_OF_PERICENTER = 105.2308
MEAN_ANOMALY   = 255.2732

EPHEMERIS_TYPE = 0
CLASSIFICATION_TYPE = U
NORAD_CAT_ID   = 28415
ELEMENT_SET_NO = 999
REV_AT_EPOCH   = 17400
BSTAR          = .4250067E-3
MEAN_MOTION_DOT = .11866E-3
MEAN_MOTION_DDOT = 0

CCSDS_OMM_VERS = 2.0
CREATION_DATE  = 
ORIGINATOR     = 

OBJECT_NAME    = CZ-2C R/B
OBJECT_ID      = 2004-046B
CENTER_NAME    = EARTH
REF_FRAME      = TEME
TIME_SYSTEM    = UTC
MEAN_ELEMENT_THEORY = SGP/SGP4

EPOCH          = 2026-01-30T04:48:52.006752
MEAN_MOTION    = 14.26977057
ECCENTRICITY   = .01382095
INCLINATION    = 98.1999
RA_OF_ASC_NODE = 307.5738
ARG_OF_PERICENTER = 268.7486
MEAN_ANOMALY   = 89.7860

EPHEMERIS_TYPE = 0
CLASSIFICATION_TYPE = U
NORAD_CAT_ID   = 28480
ELEMENT_SET_NO = 999
REV_AT_EPOCH   = 10301
BSTAR          = .11786596E-3
MEAN_MOTION_DOT = .274E-5
MEAN_MOTION_DDOT = 0

CCSDS_OMM_VERS = 2.0
CREATION_DATE  = 
ORIGINATOR     = 

OBJECT_NAME    = ARIANE 5 R/B
OBJECT_ID      = 2004-049H
CENTER_NAME    = EARTH
REF_FRAME      = TEME
TIME_SYSTEM    = UTC
MEAN_ELEMENT_THEORY = SGP/SGP4

EPOCH          = 2026-01-30T00:42:24.743520
MEAN_MOTION    = 14.85178619
ECCENTRICITY   = .00853924
INCLINATION    = 98.2559
RA_OF_ASC_NODE = 197.0570
ARG_OF_PERICENTER = 116.0564
MEAN_ANOMALY   = 244.9472

EPHEMERIS_TYPE = 0
CLASSIFICATION_TYPE = U
NORAD_CAT_ID   = 28499
ELEMENT_SET_NO = 999
REV_AT_EPOCH   = 14005
BSTAR          = .18955567E-3
MEAN_MOTION_DOT = .167E-4
MEAN_MOTION_DDOT = 0

CCSDS_OMM_VERS = 2.0
CREATION_DATE  = 
ORIGINATOR     = 

OBJECT_NAME    = CZ-2D R/B
OBJECT_ID      = 2005-024B
CENTER_NAME    = EARTH
REF_FRAME      = TEME
TIME_SYSTEM    = UTC
MEAN_ELEMENT_THEORY = SGP/SGP4

EPOCH          = 2026-01-30T07:28:33.089376
MEAN_MOTION    = 15.56809337
ECCENTRICITY   = .00065482
INCLINATION    = 97.3615
RA_OF_ASC_NODE = 44.1507
ARG_OF_PERICENTER = 140.2014
MEAN_ANOMALY   = 219.9723

EPHEMERIS_TYPE = 0
CLASSIFICATION_TYPE = U
NORAD_CAT_ID   = 28738
ELEMENT_SET_NO = 999
REV_AT_EPOCH   = 13380
BSTAR          = .67161913E-3
MEAN_MOTION_DOT = .48277E-3
MEAN_MOTION_DDOT = 0

